NEE-02 KRYSAOR          
1 39441U 13066AB  26068.37805844  .00004234  00000+0  46919-3 0  9992
2 39441  97.8816   8.3817 0067760  38.0821 322.5155 14.86160783661377
STARLINK-34013          
1 63871U 25094H   26068.87598317  .00007414  00000+0  62820-3 0  9991
2 63871  70.0022 233.8845 0003423 264.4793  95.5976 14.98347536 47235
